{"type": "FeatureCollection", "features": [ {"type": "Feature", "properties": {"norad_id": 66795, "name": "STARLINK-36047", "group": "last-30-days", "lat": -35.16084863105244, "lon": -154.95868594215526, "alt_km": 307.40233040362546, "timestamp": "2025-12-12T09:49:07.482508+00:00", "meta": {"OBJECT_NAME": "STARLINK-36047", "OBJECT_ID": "2025-278E", "EPOCH": "2025-12-12T02:31:01.704576", "MEAN_MOTION": 15.88950119, "ECCENTRICITY": 0.0001983, "INCLINATION": 42.9978, "RA_OF_ASC_NODE": 256.0378, "ARG_OF_PERICENTER": 294.8344, "MEAN_ANOMALY": 65.2324, "EPHEMERIS_TYPE": 0, "CLASSIFICATION_TYPE": "U", "NORAD_CAT_ID": 66795, "ELEMENT_SET_NO": 999, "REV_AT_EPOCH": 173, "BSTAR": -0.0010544, "MEAN_MOTION_DOT": -0.00301239, "MEAN_MOTION_DDOT": 0}, "tle": {"line1": "1 66795U 25278E   25346.10488084 -.00301239  00000+0 -10544-2 0  9995", "line2": "2 66795  42.9978 256.0378 0001983 294.8344  65.2324 15.88950119  1730"}}, "geometry": {"type": "Point", "coordinates": [-154.95868594215526, -35.16084863105244]}}, {"type": "Feature", "properties": {"norad_id": 66796, "name": "STARLINK-35964", "group": "last-30-days", "lat": -36.39189879912134, "lon": 125.68174787335951, "alt_km": 267.3145702636439, "timestamp": "2025-12-12T09:49:07.482519+00:00", "meta": {"OBJECT_NAME": "STARLINK-35964", "OBJECT_ID": "2025-278F", "EPOCH": "2025-12-12T02:50:17.191392", "MEAN_MOTION": 16.02988204, "ECCENTRICITY": 0.000413, "INCLINATION": 42.9959, "RA_OF_ASC_NODE": 255.2331, "ARG_OF_PERICENTER": 249.7843, "MEAN_ANOMALY": 110.2593, "EPHEMERIS_TYPE": 0, "CLASSIFICATION_TYPE": "U", "NORAD_CAT_ID": 66796, "ELEMENT_SET_NO": 999, "REV_AT_EPOCH": 174, "BSTAR": -0.00085324, "MEAN_MOTION_DOT": -0.00545393, "MEAN_MOTION_DDOT": 0.00011351}, "tle": {"line1": "1 66796U 25278F   25346.11825453 -.00545393  11351-3 -85324-3 0  9997", "line2": "2 66796  42.9959 255.2331 0004130 249.7843 110.2593 16.02988204  1743"}}, "geometry": {"type": "Point", "coordinates": [125.68174787335951, -36.39189879912134]}}, {"type": "Feature", "properties": {"norad_id": 66797, "name": "STARLINK-36099", "group": "last-30-days", "lat": -32.53370612725077, "lon": -149.06754525530295, "alt_km": 306.8117799349993, "timestamp": "2025-12-12T09:49:07.482529+00:00", "meta": {"OBJECT_NAME": "STARLINK-36099", "OBJECT_ID": "2025-278G", "EPOCH": "2025-12-12T02:29:39.181344", "MEAN_MOTION": 15.89020239, "ECCENTRICITY": 0.0002185, "INCLINATION": 42.9972, "RA_OF_ASC_NODE": 256.0298, "ARG_OF_PERICENTER": 300.4321, "MEAN_ANOMALY": 59.6338, "EPHEMERIS_TYPE": 0, "CLASSIFICATION_TYPE": "U", "NORAD_CAT_ID": 66797, "ELEMENT_SET_NO": 999, "REV_AT_EPOCH": 173, "BSTAR": -0.00081557, "MEAN_MOTION_DOT": -0.00235686, "MEAN_MOTION_DDOT": 0}, "tle": {"line1": "1 66797U 25278G   25346.10392571 -.00235686  00000+0 -81557-3 0  9997", "line2": "2 66797  42.9972 256.0298 0002185 300.4321  59.6338 15.89020239  1735"}}, "geometry": {"type": "Point", "coordinates": [-149.06754525530295, -32.53370612725077]}}, {"type": "Feature", "properties": {"norad_id": 66798, "name": "STARLINK-36041", "group": "last-30-days", "lat": -31.50585223150534, "lon": -147.00084930781637, "alt_km": 306.9446249892453, "timestamp": "2025-12-12T09:49:07.482541+00:00", "meta": {"OBJECT_NAME": "STARLINK-36041", "OBJECT_ID": "2025-278H", "EPOCH": "2025-12-12T02:29:08.037600", "MEAN_MOTION": 15.89021243, "ECCENTRICITY": 0.000218, "INCLINATION": 42.9978, "RA_OF_ASC_NODE": 256.0268, "ARG_OF_PERICENTER": 292.7128, "MEAN_ANOMALY": 67.3515, "EPHEMERIS_TYPE": 0, "CLASSIFICATION_TYPE": "U", "NORAD_CAT_ID": 66798, "ELEMENT_SET_NO": 999, "REV_AT_EPOCH": 173, "BSTAR": -0.0011229, "MEAN_MOTION_DOT": -0.00321249, "MEAN_MOTION_DDOT": 0}, "tle": {"line1": "1 66798U 25278H   25346.10356525 -.00321249  00000+0 -11229-2 0  9996", "line2": "2 66798  42.9978 256.0268 0002180 292.7128  67.3515 15.89021243  1731"}}, "geometry": {"type": "Point", "coordinates": [-147.00084930781637, -31.50585223150534]}}, {"type": "Feature", "properties": {"norad_id": 66799, "name": "STARLINK-36044", "group": "last-30-days", "lat": -30.386994870247122, "lon": -144.87359778458827, "alt_km": 307.67684183484926, "timestamp": "2025-12-12T09:49:07.482551+00:00", "meta": {"OBJECT_NAME": "STARLINK-36044", "OBJECT_ID": "2025-278J", "EPOCH": "2025-12-12T03:59:05.220960", "MEAN_MOTION": 15.8889163, "ECCENTRICITY": 0.000192, "INCLINATION": 42.9973, "RA_OF_ASC_NODE": 255.6342, "ARG_OF_PERICENTER": 265.2861, "MEAN_ANOMALY": 94.7794, "EPHEMERIS_TYPE": 0, "CLASSIFICATION_TYPE": "U", "NORAD_CAT_ID": 66799, "ELEMENT_SET_NO": 999, "REV_AT_EPOCH": 174, "BSTAR": -0.0012174, "MEAN_MOTION_DOT": -0.00345028, "MEAN_MOTION_DDOT": 0}, "tle": {"line1": "1 66799U 25278J   25346.16603265 -.00345028  00000+0 -12174-2 0  9990", "line2": "2 66799  42.9973 255.6342 0001920 265.2861  94.7794 15.88891630  1743"}}, "geometry": {"type": "Point", "coordinates": [-144.87359778458827, -30.386994870247122]}}, {"type": "Feature", "properties": {"norad_id": 66800, "name": "STARLINK-35996", "group": "last-30-days", "lat": -27.796984618715662, "lon": -140.34183914093404, "alt_km": 307.08773232690055, "timestamp": "2025-12-12T09:49:07.482562+00:00", "meta": {"OBJECT_NAME": "STARLINK-35996", "OBJECT_ID": "2025-278K", "EPOCH": "2025-12-12T03:57:55.559232", "MEAN_MOTION": 15.89012909, "ECCENTRICITY": 0.0002171, "INCLINATION": 42.9972, "RA_OF_ASC_NODE": 255.6266, "ARG_OF_PERICENTER": 261.5835, "MEAN_ANOMALY": 98.4793, "EPHEMERIS_TYPE": 0, "CLASSIFICATION_TYPE": "U", "NORAD_CAT_ID": 66800, "ELEMENT_SET_NO": 999, "REV_AT_EPOCH": 174, "BSTAR": -0.00089065, "MEAN_MOTION_DOT": -0.00256637, "MEAN_MOTION_DDOT": 0}, "tle": {"line1": "1 66800U 25278K   25346.16522638 -.00256637  00000+0 -89065-3 0  9998", "line2": "2 66800  42.9972 255.6266 0002171 261.5835  98.4793 15.89012909  1744"}}, "geometry": {"type": "Point", "coordinates": [-140.34183914093404, -27.796984618715662]}}, {"type": "Feature", "properties": {"norad_id": 66801, "name": "STARLINK-36080", "group": "last-30-days", "lat": -20.974326827639203, "lon": -130.20751735057686, "alt_km": 306.07739896748535, "timestamp": "2025-12-12T09:49:07.482572+00:00", "meta": {"OBJECT_NAME": "STARLINK-36080", "OBJECT_ID": "2025-278L", "EPOCH": "2025-12-12T02:24:33.270048", "MEAN_MOTION": 15.89195087, "ECCENTRICITY": 0.0002203, "INCLINATION": 42.9973, "RA_OF_ASC_NODE": 256.0003, "ARG_OF_PERICENTER": 287.2597, "MEAN_ANOMALY": 72.8036, "EPHEMERIS_TYPE": 0, "CLASSIFICATION_TYPE": "U", "NORAD_CAT_ID": 66801, "ELEMENT_SET_NO": 999, "REV_AT_EPOCH": 173, "BSTAR": -0.0013317, "MEAN_MOTION_DOT": -0.00381689, "MEAN_MOTION_DDOT": 0}, "tle": {"line1": "1 66801U 25278L   25346.10038507 -.00381689  00000+0 -13317-2 0  9992", "line2": "2 66801  42.9973 256.0003 0002203 287.2597  72.8036 15.89195087  1730"}}, "geometry": {"type": "Point", "coordinates": [-130.20751735057686, -20.974326827639203]}}, {"type": "Feature", "properties": {"norad_id": 66802, "name": "STARLINK-35604", "group": "last-30-days", "lat": -29.179397613386584, "lon": -142.6973353832384, "alt_km": 306.79205930158605, "timestamp": "2025-12-12T09:49:07.482582+00:00", "meta": {"OBJECT_NAME": "STARLINK-35604", "OBJECT_ID": "2025-278M", "EPOCH": "2025-12-12T02:28:02.188704", "MEAN_MOTION": 15.89058129, "ECCENTRICITY": 0.0002189, "INCLINATION": 42.9979, "RA_OF_ASC_NODE": 256.0204, "ARG_OF_PERICENTER": 291.8266, "MEAN_ANOMALY": 68.2375, "EPHEMERIS_TYPE": 0, "CLASSIFICATION_TYPE": "U", "NORAD_CAT_ID": 66802, "ELEMENT_SET_NO": 999, "REV_AT_EPOCH": 173, "BSTAR": -0.0012457, "MEAN_MOTION_DOT": -0.00355618, "MEAN_MOTION_DDOT": 0}, "tle": {"line1": "1 66802U 25278M   25346.10280311 -.00355618  00000+0 -12457-2 0  9992", "line2": "2 66802  42.9979 256.0204 0002189 291.8266  68.2375 15.89058129  1737"}}, "geometry": {"type": "Point", "coordinates": [-142.6973353832384, -29.179397613386584]}}, {"type": "Feature", "properties": {"norad_id": 66803, "name": "STARLINK-35565", "group": "last-30-days", "lat": -26.58172385719319, "lon": -138.36979227037696, "alt_km": 306.48265547310075, "timestamp": "2025-12-12T09:49:07.482592+00:00", "meta": {"OBJECT_NAME": "STARLINK-35565", "OBJECT_ID": "2025-278N", "EPOCH": "2025-12-12T02:26:53.319264", "MEAN_MOTION": 15.89117119, "ECCENTRICITY": 0.000226, "INCLINATION": 42.9973, "RA_OF_ASC_NODE": 256.0139, "ARG_OF_PERICENTER": 288.019, "MEAN_ANOMALY": 72.0438, "EPHEMERIS_TYPE": 0, "CLASSIFICATION_TYPE": "U", "NORAD_CAT_ID": 66803, "ELEMENT_SET_NO": 999, "REV_AT_EPOCH": 173, "BSTAR": -0.001206, "MEAN_MOTION_DOT": -0.00345719, "MEAN_MOTION_DDOT": 0}, "tle": {"line1": "1 66803U 25278N   25346.10200601 -.00345719  00000+0 -12060-2 0  9998", "line2": "2 66803  42.9973 256.0139 0002260 288.0190  72.0438 15.89117119  1731"}}, "geometry": {"type": "Point", "coordinates": [-138.36979227037696, -26.58172385719319]}}, {"type": "Feature", "properties": {"norad_id": 66804, "name": "STARLINK-36038", "group": "last-30-days", "lat": -25.173887308751496, "lon": -136.189614315398, "alt_km": 307.3012500945006, "timestamp": "2025-12-12T09:49:07.482602+00:00", "meta": {"OBJECT_NAME": "STARLINK-36038", "OBJECT_ID": "2025-278P", "EPOCH": "2025-12-12T03:56:45.953664", "MEAN_MOTION": 15.88978852, "ECCENTRICITY": 0.0001934, "INCLINATION": 42.9974, "RA_OF_ASC_NODE": 255.6202, "ARG_OF_PERICENTER": 263.0551, "MEAN_ANOMALY": 97.0103, "EPHEMERIS_TYPE": 0, "CLASSIFICATION_TYPE": "U", "NORAD_CAT_ID": 66804, "ELEMENT_SET_NO": 999, "REV_AT_EPOCH": 174, "BSTAR": -0.00127, "MEAN_MOTION_DOT": -0.0036085, "MEAN_MOTION_DDOT": 0}, "tle": {"line1": "1 66804U 25278P   25346.16442076 -.00360850  00000+0 -12700-2 0  9993", "line2": "2 66804  42.9974 255.6202 0001934 263.0551  97.0103 15.88978852  1745"}}, "geometry": {"type": "Point", "coordinates": [-136.189614315398, -25.173887308751496]}}]}